format  = 'OEF1.1'       ! file format
rectype = '1L'           ! record type (1L/ML)
elem    = 'KEP'          ! type of orbital elements
refsys  = ECLM J2000     ! default reference system
END_OF_HEADER
'8014'         51080.000000   1.7467122465874755E+00   4.5571239305482223E-01   1.8596950038184934E+00   2.1064715984927173E+02   1.1385478386297842E+02   1.8688764581615385E+02
'8014'         51100.000000   1.7467227652227296E+00   4.5570243046365793E-01   1.8597114206017018E+00   2.1064623310779137E+02   1.1385630056031307E+02   1.9542489628625984E+02
'8014'         51120.000000   1.7467305298207931E+00   4.5569356773048675E-01   1.8597343507450844E+00   2.1064511307921472E+02   1.1385805165300174E+02   2.0396187908595425E+02
'8014'         51140.000000   1.7467365075886763E+00   4.5568470525002578E-01   1.8597647573290452E+00   2.1064381894116192E+02   1.1386002052551085E+02   2.1249859791153989E+02
'8014'         51160.000000   1.7467423174295216E+00   4.5567491732097611E-01   1.8597950024069013E+00   2.1064269101068075E+02   1.1386171953863618E+02   2.2103534925676144E+02
'8014'         51180.000000   1.7467456421065854E+00   4.5566595814438955E-01   1.8598305144347663E+00   2.1064154132849120E+02   1.1386341698175517E+02   2.2957209076427156E+02
'8014'         51200.000000   1.7467477197603925E+00   4.5565662585931852E-01   1.8598730630172165E+00   2.1064034215101583E+02   1.1386511641201632E+02   2.3810880779860872E+02
'8014'         51220.000000   1.7467494867205575E+00   4.5564673011252683E-01   1.8599173661349585E+00   2.1063926518579490E+02   1.1386655494071819E+02   2.4664566903278538E+02
'8014'         51240.000000   1.7467525799091548E+00   4.5563616378016736E-01   1.8599540151219296E+00   2.1063850335422660E+02   1.1386740454359499E+02   2.5518288986956335E+02
'8014'         51260.000000   1.7467563520122589E+00   4.5562715127921418E-01   1.8599769471678048E+00   2.1063810956608350E+02   1.1386763905891898E+02   2.6372064083170767E+02
'8014'         51280.000000   1.7467577577408404E+00   4.5562039188663874E-01   1.8599982736819616E+00   2.1063781667786327E+02   1.1386780827178519E+02   2.7225853646369063E+02
'8014'         51300.000000   1.7467560612142279E+00   4.5561550758901346E-01   1.8600179291924475E+00   2.1063761492706161E+02   1.1386802271292426E+02   2.8079644404989415E+02
'8014'         51320.000000   1.7467498653205496E+00   4.5561203028940316E-01   1.8600375577139461E+00   2.1063748270132467E+02   1.1386842384269183E+02   2.8933422949796483E+02
'8014'         51340.000000   1.7467411671989364E+00   4.5560966092444710E-01   1.8600503652588340E+00   2.1063744435754833E+02   1.1386888517664345E+02   2.9787208418617496E+02
'8014'         51360.000000   1.7467259541949165E+00   4.5560812913330180E-01   1.8600676142190780E+00   2.1063746961164640E+02   1.1386971881428236E+02   3.0640976682523569E+02
'8014'         51380.000000   1.7467021869018071E+00   4.5560543425250630E-01   1.8600885915018708E+00   2.1063760326562291E+02   1.1387087996339363E+02   3.1494722138591464E+02
'8014'         51400.000000   1.7466699128384993E+00   4.5560047558304611E-01   1.8601096681205432E+00   2.1063787045189761E+02   1.1387221561336523E+02   3.2348464125985265E+02
'8014'         51420.000000   1.7466331053812234E+00   4.5559308310712519E-01   1.8601228081636050E+00   2.1063814814502879E+02   1.1387350585810501E+02   3.3202240836612322E+02
'8014'         51440.000000   1.7466002079826701E+00   4.5558561727851901E-01   1.8601281459625218E+00   2.1063835205827459E+02   1.1387457363597311E+02   3.4056088842642436E+02
'8014'         51460.000000   1.7465745514215660E+00   4.5557925427609760E-01   1.8601296826953547E+00   2.1063847020253345E+02   1.1387540935315842E+02   3.4910003704619390E+02
'8014'         51480.000000   1.7465647013819403E+00   4.5557672863030412E-01   1.8601302167371168E+00   2.1063836196915153E+02   1.1387607726608854E+02   3.5763973882299018E+02
'8014'         51500.000000   1.7465734188353363E+00   4.5557939972953543E-01   1.8601355925721561E+00   2.1063808998502563E+02   1.1387663758021226E+02   6.1795776744166755E+00
'8014'         51520.000000   1.7465989096058221E+00   4.5558756555817883E-01   1.8601518033767741E+00   2.1063773693945865E+02   1.1387707602809790E+02   1.4719111119352194E+01
'8014'         51540.000000   1.7466306807338414E+00   4.5559905544781971E-01   1.8601736044976647E+00   2.1063756975823637E+02   1.1387715238434653E+02   2.3258121950478746E+01
'8014'         51560.000000   1.7466520412606759E+00   4.5561042300318491E-01   1.8601973163433927E+00   2.1063761890320180E+02   1.1387646570194384E+02   3.1797000678788535E+01
'8014'         51580.000000   1.7466558309673186E+00   4.5562078948713598E-01   1.8602185488256273E+00   2.1063783601822391E+02   1.1387484686469911E+02   4.0336251675699408E+01
'8014'         51600.000000   1.7466396218291229E+00   4.5563028449546223E-01   1.8602398526776971E+00   2.1063822402773667E+02   1.1387217757788376E+02   4.8876377783489218E+01
'8014'         51620.000000   1.7466114999313977E+00   4.5564064414658310E-01   1.8602542978527886E+00   2.1063859668308945E+02   1.1386899467406134E+02   5.7417284482335404E+01
'8014'         51640.000000   1.7465772504563835E+00   4.5565125172366443E-01   1.8602600392517989E+00   2.1063879507360161E+02   1.1386585465666604E+02   6.5958878730018498E+01
'8014'         51660.000000   1.7465399827234441E+00   4.5566147442659171E-01   1.8602610045614957E+00   2.1063883675651974E+02   1.1386290121259566E+02   7.4501153134739241E+01
'8014'         51680.000000   1.7465010475070928E+00   4.5567066270034626E-01   1.8602625491646865E+00   2.1063893712998077E+02   1.1385994002589666E+02   8.3044201126228572E+01
'8014'         51700.000000   1.7464598381515774E+00   4.5568022940827619E-01   1.8602669340946088E+00   2.1063928173942708E+02   1.1385662703992401E+02   9.1588089463072706E+01
'8014'         51720.000000   1.7464210309791257E+00   4.5569001337129382E-01   1.8602692504743278E+00   2.1063952915589860E+02   1.1385358179806700E+02   1.0013240873608829E+02
'8014'         51740.000000   1.7463859103945252E+00   4.5569966501859831E-01   1.8602705104952788E+00   2.1063972619678069E+02   1.1385082827710301E+02   1.0867700655404349E+02
'8014'         51760.000000   1.7463556194971101E+00   4.5570873841605950E-01   1.8602711400553805E+00   2.1063990358371800E+02   1.1384840284527790E+02   1.1722170414846204E+02
'8014'         51780.000000   1.7463285564490589E+00   4.5571765611399311E-01   1.8602716533465669E+00   2.1064035167445400E+02   1.1384589238422768E+02   1.2576658954727590E+02
'8014'         51800.000000   1.7463056934361887E+00   4.5572671397228257E-01   1.8602715741977967E+00   2.1064049683210735E+02   1.1384400553000185E+02   1.3431126563189690E+02
'8014'         51820.000000   1.7462890131182689E+00   4.5573379389202584E-01   1.8602725023294678E+00   2.1064024303539895E+02   1.1384291530596022E+02   1.4285562388851807E+02
'8014'         51840.000000   1.7462788728227148E+00   4.5573766491634471E-01   1.8602756566149459E+00   2.1063968796670892E+02   1.1384244969528787E+02   1.5139973742018378E+02
'8014'         51860.000000   1.7462750962953395E+00   4.5573745872561746E-01   1.8602788251321654E+00   2.1063927012788366E+02   1.1384197285917345E+02   1.5994391302968077E+02
'8014'         51880.000000   1.7462744272712431E+00   4.5573564680118634E-01   1.8602813849044379E+00   2.1063901826912397E+02   1.1384128107612251E+02   1.6848829963537781E+02
'8014'         51900.000000   1.7462776321930809E+00   4.5573184967944131E-01   1.8602850175187209E+00   2.1063872243907736E+02   1.1384059274660666E+02   1.7703279094161766E+02
'8014'         51920.000000   1.7462842526369164E+00   4.5572657104483767E-01   1.8602872494101172E+00   2.1063856834324545E+02   1.1383962663067622E+02   1.8557750923378583E+02
'8014'         51940.000000   1.7462941107263374E+00   4.5572031815680027E-01   1.8602846134744638E+00   2.1063871435772245E+02   1.1383816180421709E+02   1.9412252055994315E+02
'8014'         51960.000000   1.7463049022229349E+00   4.5571557755327534E-01   1.8602715965238030E+00   2.1063936438523902E+02   1.1383595229870669E+02   2.0266794148931845E+02
'8014'         51980.000000   1.7463146019962976E+00   4.5571367367607261E-01   1.8602592851022754E+00   2.1063990215658680E+02   1.1383388069878875E+02   2.1121323340226334E+02
'8014'         52000.000000   1.7463238189712589E+00   4.5571350129697379E-01   1.8602499265742345E+00   2.1064025980042791E+02   1.1383212909120631E+02   2.1975814114016802E+02
